OBJECT_NAME,OBJECT_ID,EPOCH,MEAN_MOTION,ECCENTRICITY,INCLINATION,RA_OF_ASC_NODE,ARG_OF_PERICENTER,MEAN_ANOMALY,EPHEMERIS_TYPE,CLASSIFICATION_TYPE,NORAD_CAT_ID,ELEMENT_SET_NO,REV_AT_EPOCH,BSTAR,MEAN_MOTION_DOT,MEAN_MOTION_DDOT
STARLINK-35476,2025-280E,2026-07-02T20:36:30.828960,14.98336900,.00022107,70.0017,44.2172,268.1440,91.9466,0,U,66825,999,3331,.24548216E-3,.2838E-4,0
STARLINK-35898,2025-280F,2026-07-02T21:00:31.384800,14.98332939,.00023818,70.0017,43.8734,269.0076,91.0810,0,U,66826,999,3333,.18942772E-3,.2168E-4,0
STARLINK-35959,2025-280G,2026-07-02T20:12:28.385280,14.98339498,.00028283,70.0013,44.1585,268.5956,91.4879,0,U,66827,999,3332,.38690623E-3,.4528E-4,0
STARLINK-35982,2025-280H,2026-07-02T20:30:30.191904,14.98345647,.00025416,70.0024,44.2011,273.9676,86.1193,0,U,66828,999,3332,.57994534E-3,.6836E-4,0
STARLINK-36084,2025-280J,2026-07-02T19:48:24.761376,14.98355244,.00028254,70.0013,44.0985,268.2516,91.8319,0,U,66829,999,3332,.73081533E-3,.8643E-4,0
STARLINK-35881,2025-280K,2026-07-02T20:42:31.438368,14.98338327,.00023163,70.0013,44.2341,269.0082,91.0812,0,U,66830,999,3332,.29426927E-3,.3421E-4,0
STARLINK-35788,2025-280L,2026-07-02T21:06:31.938912,14.98332879,.0002811,70.0014,43.8879,270.3563,89.7274,0,U,66831,999,3333,.11104443E-3,.1232E-4,0
STARLINK-35768,2025-280M,2026-07-02T20:18:28.204992,14.98359973,.00029847,70.0015,44.1729,269.1005,90.9813,0,U,66832,999,3332,.91055436E-3,.10797E-3,0
STARLINK-35858,2025-280N,2026-07-02T19:54:26.167392,14.98345314,.00023157,70.0032,44.1148,257.9823,102.1077,0,U,66833,999,3332,.53485567E-3,.6297E-4,0
STARLINK-35840,2025-280P,2026-07-02T14:29:58.324992,14.98333617,.0001967,70.0012,44.5343,266.7757,93.3177,0,U,66834,999,3329,.15529E-3,.1761E-4,0
STARLINK-35890,2025-280Q,2026-07-02T20:06:27.601344,14.98337525,.00025463,70.0018,44.1426,269.6692,90.4175,0,U,66835,999,3332,.28557801E-3,.3317E-4,0
STARLINK-35838,2025-280R,2026-07-02T19:42:25.080768,14.98334437,.00028439,70.0017,44.0848,265.0819,95.0015,0,U,66836,999,3332,.19671163E-3,.2255E-4,0
STARLINK-35729,2025-280S,2026-07-02T20:48:46.435968,14.98337163,.00022587,70.0021,44.2462,267.7994,92.2907,0,U,66837,999,3332,.25526651E-3,.2955E-4,0
STARLINK-35886,2025-280T,2026-07-02T14:48:14.485248,14.98343120,.0002646,70.0031,44.5709,262.3028,97.7830,0,U,66838,999,3329,.1832E-3,.2094E-4,0
STARLINK-35717,2025-280U,2026-07-02T20:00:41.457024,14.98347551,.00028217,70.0014,44.1268,266.1932,93.8905,0,U,66839,999,3332,.29064536E-3,.3378E-4,0
STARLINK-35837,2025-280V,2026-07-02T20:24:43.863552,14.98337066,.00021386,70.0013,44.1892,269.4748,90.6166,0,U,66840,999,3332,.22477891E-3,.2591E-4,0
STARLINK-35715,2025-280W,2026-07-02T20:36:44.940672,14.98344067,.00022635,70.0025,44.2165,265.1766,94.9135,0,U,66841,999,3332,.37187405E-3,.4348E-4,0
STARLINK-35769,2025-280X,2026-07-02T21:00:45.439488,14.98336372,.00021414,70.0022,43.8721,270.4387,89.6527,0,U,66842,999,3333,.11283606E-3,.1254E-4,0
STARLINK-35997,2025-280Y,2026-07-02T19:48:38.366784,14.98371768,.00032737,70.0000,44.0927,279.2187,80.8602,0,U,66843,999,3332,.86286362E-3,.10229E-3,0
STARLINK-36073,2025-280Z,2026-07-02T20:12:42.459840,14.98337778,.00027427,70.0016,44.1574,270.6765,89.4080,0,U,66844,999,3329,.25570951E-3,.296E-4,0
STARLINK-36068,2025-280AA,2026-07-02T21:06:45.895968,14.98334287,.00029101,70.0016,43.8844,268.3270,91.7556,0,U,66845,999,3333,-.74511526E-4,-.982E-5,0
STARLINK-36055,2025-280AB,2026-07-02T20:30:44.407296,14.98337975,.00026709,70.0006,44.2035,265.1399,94.9456,0,U,66846,999,3333,.24976492E-3,.2889E-4,0
STARLINK-36061,2025-280AC,2026-07-02T20:42:45.721152,14.98338056,.00021871,70.0014,44.2300,268.1272,91.9636,0,U,66847,999,3332,.28714895E-3,.3336E-4,0
STARLINK-36091,2025-281A,2026-07-02T15:39:02.101824,15.27585174,.00010825,43.0002,54.5681,270.4689,89.6038,0,U,66848,999,3244,.23186312E-3,.6125E-4,0
STARLINK-36102,2025-281B,2026-07-02T18:32:34.840608,15.27561953,.0001353,43.0034,53.7504,222.4374,137.6373,0,U,66849,999,3378,.16781535E-2,.46181E-3,0
STARLINK-36105,2025-281C,2026-07-02T16:52:50.238336,15.27590081,.00014806,43.0036,54.0906,264.7604,95.3079,0,U,66850,999,3377,.48036017E-3,.12984E-3,0
STARLINK-36094,2025-281D,2026-07-02T16:26:56.105376,15.27559270,.00025792,42.9994,53.9504,283.1127,76.9437,0,U,66851,999,3377,.72340218E-3,.19686E-3,0
STARLINK-35992,2025-281E,2026-07-02T16:21:22.995360,15.27574404,.00036971,43.0019,53.9224,290.0750,69.9703,0,U,66852,999,3377,.97188593E-3,.26577E-3,0
STARLINK-35986,2025-281F,2026-07-02T08:25:02.404128,15.27602765,.0001492,43.0031,55.7418,281.0879,78.9805,0,U,66853,999,3372,.39081E-3,.10515E-3,0
STARLINK-36087,2025-281G,2026-07-02T16:10:16.809024,15.27564597,.00011499,43.0011,53.8653,272.4469,87.6251,0,U,66854,999,3377,-.82988955E-4,-.2544E-4,0
