STARLINK-35476          
1 66825U 25280E   26183.85869015  .00002838  00000+0  24548-3 0  9992
2 66825  70.0017  44.2172 0002210 268.1440  91.9466 14.98336900 33312
STARLINK-35898          
1 66826U 25280F   26183.87536325  .00002168  00000+0  18943-3 0  9998
2 66826  70.0017  43.8734 0002381 269.0076  91.0810 14.98332939 33330
STARLINK-35959          
1 66827U 25280G   26183.84199520  .00004528  00000+0  38691-3 0  9992
2 66827  70.0013  44.1585 0002828 268.5956  91.4879 14.98339498 33327
STARLINK-35982          
1 66828U 25280H   26183.85451611  .00006836  00000+0  57995-3 0  9998
2 66828  70.0024  44.2011 0002541 273.9676  86.1193 14.98345647 33329
STARLINK-36084          
1 66829U 25280J   26183.82528659  .00008643  00000+0  73082-3 0  9996
2 66829  70.0013  44.0985 0002825 268.2516  91.8319 14.98355244 33328
STARLINK-35881          
1 66830U 25280K   26183.86286387  .00003421  00000+0  29427-3 0  9994
2 66830  70.0013  44.2341 0002316 269.0082  91.0812 14.98338327 33323
STARLINK-35788          
1 66831U 25280L   26183.87953633  .00001232  00000+0  11104-3 0  9992
2 66831  70.0014  43.8879 0002811 270.3563  89.7274 14.98332879 33338
STARLINK-35768          
1 66832U 25280M   26183.84615978  .00010797  00000+0  91055-3 0  9996
2 66832  70.0015  44.1729 0002984 269.1005  90.9813 14.98359973 33322
STARLINK-35858          
1 66833U 25280N   26183.82946953  .00006297  00000+0  53486-3 0  9991
2 66833  70.0032  44.1148 0002315 257.9823 102.1077 14.98345314 33320
STARLINK-35840          
1 66834U 25280P   26183.60414728  .00001761  00000+0  15529-3 0  9995
2 66834  70.0012  44.5343 0001967 266.7757  93.3177 14.98333617 33297
STARLINK-35890          
1 66835U 25280Q   26183.83781946  .00003317  00000+0  28558-3 0  9995
2 66835  70.0018  44.1426 0002546 269.6692  90.4175 14.98337525 33328
STARLINK-35838          
1 66836U 25280R   26183.82112362  .00002255  00000+0  19671-3 0  9991
2 66836  70.0017  44.0848 0002843 265.0819  95.0015 14.98334437 33329
STARLINK-35729          
1 66837U 25280S   26183.86720412  .00002955  00000+0  25527-3 0  9991
2 66837  70.0021  44.2462 0002258 267.7994  92.2907 14.98337163 33320
STARLINK-35886          
1 66838U 25280T   26183.61683432  .00002094  00000+0  18320-3 0  9992
2 66838  70.0031  44.5709 0002646 262.3028  97.7830 14.98343120 33290
STARLINK-35717          
1 66839U 25280U   26183.83381316  .00003378  00000+0  29065-3 0  9997
2 66839  70.0014  44.1268 0002821 266.1932  93.8905 14.98347551 33325
STARLINK-35837          
1 66840U 25280V   26183.85050768  .00002591  00000+0  22478-3 0  9992
2 66840  70.0013  44.1892 0002138 269.4748  90.6166 14.98337066 33325
STARLINK-35715          
1 66841U 25280W   26183.85885348  .00004348  00000+0  37187-3 0  9998
2 66841  70.0025  44.2165 0002263 265.1766  94.9135 14.98344067 33327
STARLINK-35769          
1 66842U 25280X   26183.87552592  .00001254  00000+0  11284-3 0  9996
2 66842  70.0022  43.8721 0002141 270.4387  89.6527 14.98336372 33338
STARLINK-35997          
1 66843U 25280Y   26183.82544406  .00010229  00000+0  86286-3 0  9993
2 66843  70.0000  44.0927 0003273 279.2187  80.8602 14.98371768 33322
STARLINK-36073          
1 66844U 25280Z   26183.84215810  .00002960  00000+0  25571-3 0  9993
2 66844  70.0016  44.1574 0002742 270.6765  89.4080 14.98337778 33290
STARLINK-36068          
1 66845U 25280AA  26183.87969787 -.00000982  00000+0 -74512-4 0  9990
2 66845  70.0016  43.8844 0002910 268.3270  91.7556 14.98334287 33330
STARLINK-36055          
1 66846U 25280AB  26183.85468064  .00002889  00000+0  24976-3 0  9995
2 66846  70.0006  44.2035 0002670 265.1399  94.9456 14.98337975 33338
STARLINK-36061          
1 66847U 25280AC  26183.86302918  .00003336  00000+0  28715-3 0  9995
2 66847  70.0014  44.2300 0002187 268.1272  91.9636 14.98338056 33326
STARLINK-36091          
1 66848U 25281A   26183.65210766  .00006125  00000+0  23186-3 0  9999
2 66848  43.0002  54.5681 0001082 270.4689  89.6038 15.27585174 32441
STARLINK-36102          
1 66849U 25281B   26183.77262547  .00046181  00000+0  16782-2 0  9996
2 66849  43.0034  53.7504 0001353 222.4374 137.6373 15.27561953 33784
STARLINK-36105          
1 66850U 25281C   26183.70335924  .00012984  00000+0  48036-3 0  9993
2 66850  43.0036  54.0906 0001480 264.7604  95.3079 15.27590081 33770
STARLINK-36094          
1 66851U 25281D   26183.68537159  .00019686  00000+0  72340-3 0  9996
2 66851  42.9994  53.9504 0002579 283.1127  76.9437 15.27559270 33777
STARLINK-35992          
1 66852U 25281E   26183.68151615  .00026577  00000+0  97189-3 0  9991
2 66852  43.0019  53.9224 0003697 290.0750  69.9703 15.27574404 33772
STARLINK-35986          
1 66853U 25281F   26183.35072227  .00010515  00000+0  39081-3 0  9999
2 66853  43.0031  55.7418 0001492 281.0879  78.9805 15.27602765 33725
STARLINK-36087          
1 66854U 25281G   26183.67380566 -.00002544  00000+0 -82989-4 0  9994
2 66854  43.0011  53.8653 0001149 272.4469  87.6251 15.27564597 33779
